{"spaceTrack"{"CCSDS_OMM_VERS":"2.0","COMMENT":"GENERATED VIA SPACE-TRACK.ORG API","CREATION_DATE":"2021-01-26T06:26:10","ORIGINATOR":"18 SPCS","OBJECT_NAME":"STARLINK-1674","OBJECT_ID":"2020-070Z","CENTER_NAME":"EARTH","REF_FRAME":"TEME","TIME_SYSTEM":"UTC","MEAN_ELEMENT_THEORY":"SGP4","EPOCH":"2021-01-26T06:26:10","MEAN_MOTION":15.62772428,"ECCENTRICITY":0.000302,"INCLINATION":52.9982,"RA_OF_ASC_NODE":251.0079,"ARG_OF_PERICENTER":17.2587,"MEAN_ANOMALY":262.4473,"EPHEMERIS_TYPE":0,"CLASSIFICATION_TYPE":"U","NORAD_CAT_ID":46555,"ELEMENT_SET_NO":999,"REV_AT_EPOCH":1842,"BSTAR":-0.00098032,"MEAN_MOTION_DOT":-0.00089407,"MEAN_MOTION_DDOT":0,"SEMIMAJOR_AXIS":6757.79,"PERIOD":92.144,"APOAPSIS":381.696,"PERIAPSIS":377.614,"OBJECT_TYPE":"PAYLOAD","RCS_SIZE":"LARGE","COUNTRY_CODE":"US","LAUNCH_DATE":"2020-10-06","SITE":"AFETR","DECAY_DATE":null,"DECAYED":0,"FILE":2940516,"GP_ID":170441723,"TLE_LINE0":"0 STARLINK-1674","TLE_LINE1":"1 46555U 20070Z   21026.91667824 -.00089407  00000-0 -98032-3 0  9993","TLE_LINE2":"2 46555  52.9982 251.0079 0003020  17.2587 262.4473 15.62772428 18428"},"version":"v1.0","launch":"5ef6a2090059c33cee4a828b","longitude":163,"latitude":-47.356805048326066,"height_km":395.62298856736834,"velocity_kms":7.672792207996467,"id":"5f889669c86e27000615b28d"}
{"spaceTrack"{"CCSDS_OMM_VERS":"2.0","COMMENT":"GENERATED VIA SPACE-TRACK.ORG API","CREATION_DATE":"2021-01-26T06:26:10","ORIGINATOR":"18 SPCS","OBJECT_NAME":"STARLINK-1749","OBJECT_ID":"2020-070BK","CENTER_NAME":"EARTH","REF_FRAME":"TEME","TIME_SYSTEM":"UTC","MEAN_ELEMENT_THEORY":"SGP4","EPOCH":"2021-01-26T06:26:10","MEAN_MOTION":15.05495407,"ECCENTRICITY":0.0004355,"INCLINATION":53.0034,"RA_OF_ASC_NODE":261.3955,"ARG_OF_PERICENTER":314.1179,"MEAN_ANOMALY":116.1587,"EPHEMERIS_TYPE":0,"CLASSIFICATION_TYPE":"U","NORAD_CAT_ID":46589,"ELEMENT_SET_NO":999,"REV_AT_EPOCH":1827,"BSTAR":-0.0012823,"MEAN_MOTION_DOT":-0.00018875,"MEAN_MOTION_DDOT":0,"SEMIMAJOR_AXIS":6928.122,"PERIOD":95.65,"APOAPSIS":553.005,"PERIAPSIS":546.97,"OBJECT_TYPE":"PAYLOAD","RCS_SIZE":"LARGE","COUNTRY_CODE":"US","LAUNCH_DATE":"2020-10-06","SITE":"AFETR","DECAY_DATE":null,"DECAYED":0,"FILE":2940515,"GP_ID":170441721,"TLE_LINE0":"0 STARLINK-1749","TLE_LINE1":"1 46589U 20070BK  21026.91667824 -.00018875  00000-0 -12823-2 0  9994","TLE_LINE2":"2 46589  53.0034 261.3955 0004355 314.1179 116.1587 15.05495407 18270"},"version":"v1.0","launch":"5ef6a2090059c33cee4a828b","longitude":70,"latitude":48.95133910992361,"height_km":556.9066053930937,"velocity_kms":7.5883674318485825,"id":"5f889669c86e27000615b29c"}
{"spaceTrack"{"CCSDS_OMM_VERS":"2.0","COMMENT":"GENERATED VIA SPACE-TRACK.ORG API","CREATION_DATE":"2021-01-26T06:26:10","ORIGINATOR":"18 SPCS","OBJECT_NAME":"STARLINK-1737","OBJECT_ID":"2020-070BG","CENTER_NAME":"EARTH","REF_FRAME":"TEME","TIME_SYSTEM":"UTC","MEAN_ELEMENT_THEORY":"SGP4","EPOCH":"2021-01-26T06:26:10","MEAN_MOTION":15.0641089,"ECCENTRICITY":0.0002093,"INCLINATION":53.0549,"RA_OF_ASC_NODE":261.3584,"ARG_OF_PERICENTER":79.5897,"MEAN_ANOMALY":98.9647,"EPHEMERIS_TYPE":0,"CLASSIFICATION_TYPE":"U","NORAD_CAT_ID":46586,"ELEMENT_SET_NO":999,"REV_AT_EPOCH":1794,"BSTAR":-0.0011014,"MEAN_MOTION_DOT":-0.00016654,"MEAN_MOTION_DDOT":0,"SEMIMAJOR_AXIS":6925.315,"PERIOD":95.591,"APOAPSIS":548.63,"PERIAPSIS":545.731,"OBJECT_TYPE":"PAYLOAD","RCS_SIZE":"LARGE","COUNTRY_CODE":"US","LAUNCH_DATE":"2020-10-06","SITE":"AFETR","DECAY_DATE":null,"DECAYED":0,"FILE":2940512,"GP_ID":170441668,"TLE_LINE0":"0 STARLINK-1737","TLE_LINE1":"1 46586U 20070BG  21026.91667824 -.00016654  00000-0 -11014-2 0  9995","TLE_LINE2":"2 46586  53.0549 261.3584 0002093  79.5897  98.9647 15.06410890 17943"},"version":"v1.0","launch":"5ef6a2090059c33cee4a828b","longitude":141,"latitude":1.0145159735567126,"height_km":548.1594946247506,"velocity_kms":7.589050397903614,"id":"5f889669c86e27000615b298"}
{"spaceTrack"{"CCSDS_OMM_VERS":"2.0","COMMENT":"GENERATED VIA SPACE-TRACK.ORG API","CREATION_DATE":"2021-01-26T06:26:10","ORIGINATOR":"18 SPCS","OBJECT_NAME":"STARLINK-1754","OBJECT_ID":"2020-070BL","CENTER_NAME":"EARTH","REF_FRAME":"TEME","TIME_SYSTEM":"UTC","MEAN_ELEMENT_THEORY":"SGP4","EPOCH":"2021-01-26T06:26:10","MEAN_MOTION":15.59530722,"ECCENTRICITY":0.0007767,"INCLINATION":53.0014,"RA_OF_ASC_NODE":251.7519,"ARG_OF_PERICENTER":359.1058,"MEAN_ANOMALY":274.3267,"EPHEMERIS_TYPE":0,"CLASSIFICATION_TYPE":"U","NORAD_CAT_ID":46590,"ELEMENT_SET_NO":999,"REV_AT_EPOCH":1838,"BSTAR":0.00022657,"MEAN_MOTION_DOT":0.00017867,"MEAN_MOTION_DDOT":0,"SEMIMAJOR_AXIS":6767.151,"PERIOD":92.335,"APOAPSIS":394.272,"PERIAPSIS":383.76,"OBJECT_TYPE":"PAYLOAD","RCS_SIZE":"LARGE","COUNTRY_CODE":"US","LAUNCH_DATE":"2020-10-06","SITE":"AFETR","DECAY_DATE":null,"DECAYED":0,"FILE":2940515,"GP_ID":170442211,"TLE_LINE0":"0 STARLINK-1754","TLE_LINE1":"1 46590U 20070BL  21026.91667824  .00017867  00000-0  22657-3 0  9991","TLE_LINE2":"2 46590  53.0014 251.7519 0007767 359.1058 274.3267 15.59530722 18387"},"version":"v1.0","launch":"5ef6a2090059c33cee4a828b","longitude":178,"latitude":-50.23151263507799,"height_km":404.76851122228163,"velocity_kms":7.668371917999668,"id":"5f889669c86e27000615b2a8"}
{"spaceTrack"{"CCSDS_OMM_VERS":"2.0","COMMENT":"GENERATED VIA SPACE-TRACK.ORG API","CREATION_DATE":"2021-01-26T06:26:10","ORIGINATOR":"18 SPCS","OBJECT_NAME":"STARLINK-1696","OBJECT_ID":"2020-070P","CENTER_NAME":"EARTH","REF_FRAME":"TEME","TIME_SYSTEM":"UTC","MEAN_ELEMENT_THEORY":"SGP4","EPOCH":"2021-01-26T06:26:10","MEAN_MOTION":15.05610029,"ECCENTRICITY":0.0002568,"INCLINATION":52.9934,"RA_OF_ASC_NODE":281.3886,"ARG_OF_PERICENTER":81.4143,"MEAN_ANOMALY":150.1567,"EPHEMERIS_TYPE":0,"CLASSIFICATION_TYPE":"U","NORAD_CAT_ID":46545,"ELEMENT_SET_NO":999,"REV_AT_EPOCH":1798,"BSTAR":-0.0048492,"MEAN_MOTION_DOT":-0.00070298,"MEAN_MOTION_DDOT":0,"SEMIMAJOR_AXIS":6927.771,"PERIOD":95.642,"APOAPSIS":551.415,"PERIAPSIS":547.857,"OBJECT_TYPE":"PAYLOAD","RCS_SIZE":"LARGE","COUNTRY_CODE":"US","LAUNCH_DATE":"2020-10-06","SITE":"AFETR","DECAY_DATE":null,"DECAYED":0,"FILE":2940519,"GP_ID":170441582,"TLE_LINE0":"0 STARLINK-1696","TLE_LINE1":"1 46545U 20070P   21026.91667824 -.00070298  00000-0 -48492-2 0  9994","TLE_LINE2":"2 46545  52.9934 281.3886 0002568  81.4143 150.1567 15.05610029 17985"},"version":"v1.0","launch":"5ef6a2090059c33cee4a828b","longitude":56,"latitude":-38.99386152009918,"height_km":563.9320150025469,"velocity_kms":7.578254527869886,"id":"5f889669c86e27000615b2a7"}
{"spaceTrack"{"CCSDS_OMM_VERS":"2.0","COMMENT":"GENERATED VIA SPACE-TRACK.ORG API","CREATION_DATE":"2021-01-26T06:26:10","ORIGINATOR":"18 SPCS","OBJECT_NAME":"STARLINK-1729","OBJECT_ID":"2020-070BD","CENTER_NAME":"EARTH","REF_FRAME":"TEME","TIME_SYSTEM":"UTC","MEAN_ELEMENT_THEORY":"SGP4","EPOCH":"2021-01-26T06:26:10","MEAN_MOTION":15.05564304,"ECCENTRICITY":0.0002396,"INCLINATION":52.9996,"RA_OF_ASC_NODE":282.8773,"ARG_OF_PERICENTER":78.1992,"MEAN_ANOMALY":253.6469,"EPHEMERIS_TYPE":0,"CLASSIFICATION_TYPE":"U","NORAD_CAT_ID":46583,"ELEMENT_SET_NO":999,"REV_AT_EPOCH":175,"BSTAR":0.003307,"MEAN_MOTION_DOT":0.00048215,"MEAN_MOTION_DDOT":0,"SEMIMAJOR_AXIS":6927.911,"PERIOD":95.645,"APOAPSIS":551.436,"PERIAPSIS":548.116,"OBJECT_TYPE":"PAYLOAD","RCS_SIZE":"LARGE","COUNTRY_CODE":"US","LAUNCH_DATE":"2020-10-06","SITE":"AFETR","DECAY_DATE":null,"DECAYED":0,"FILE":2940260,"GP_ID":170414175,"TLE_LINE0":"0 STARLINK-1729","TLE_LINE1":"1 46583U 20070BD  21026.58334491  .00048215  00000-0  33070-2 0  9998","TLE_LINE2":"2 46583  52.9996 282.8773 0002396  78.1992 253.6469 15.05564304  1752"},"version":"v1.0","launch":"5ef6a2090059c33cee4a828b","longitude":38,"latitude":-16.498839895116017,"height_km":554.380840798598,"velocity_kms":7.584625358938363,"id":"5f889669c86e27000615b2a6"}
{"spaceTrack"{"CCSDS_OMM_VERS":"2.0","COMMENT":"GENERATED VIA SPACE-TRACK.ORG API","CREATION_DATE":"2021-01-26T06:26:10","ORIGINATOR":"18 SPCS","OBJECT_NAME":"STARLINK-1733","OBJECT_ID":"2020-070AJ","CENTER_NAME":"EARTH","REF_FRAME":"TEME","TIME_SYSTEM":"UTC","MEAN_ELEMENT_THEORY":"SGP4","EPOCH":"2021-01-26T06:26:10","MEAN_MOTION":15.06376396,"ECCENTRICITY":0.0002069,"INCLINATION":53.0639,"RA_OF_ASC_NODE":262.7958,"ARG_OF_PERICENTER":75.6987,"MEAN_ANOMALY":214.0757,"EPHEMERIS_TYPE":0,"CLASSIFICATION_TYPE":"U","NORAD_CAT_ID":46564,"ELEMENT_SET_NO":999,"REV_AT_EPOCH":180,"BSTAR":0.002487,"MEAN_MOTION_DOT":0.00036934,"MEAN_MOTION_DDOT":0,"SEMIMAJOR_AXIS":6925.421,"PERIOD":95.594,"APOAPSIS":548.719,"PERIAPSIS":545.853,"OBJECT_TYPE":"PAYLOAD","RCS_SIZE":"LARGE","COUNTRY_CODE":"US","LAUNCH_DATE":"2020-10-06","SITE":"AFETR","DECAY_DATE":null,"DECAYED":0,"FILE":2940260,"GP_ID":170414315,"TLE_LINE0":"0 STARLINK-1733","TLE_LINE1":"1 46564U 20070AJ  21026.58334491  .00036934  00000-0  24870-2 0  9990","TLE_LINE2":"2 46564  53.0639 262.7958 0002069  75.6987 214.0757 15.06376396  1802"},"version":"v1.0","launch":"5ef6a2090059c33cee4a828b","longitude":84,"latitude":-44.81350625568592,"height_km":563.3979643945067,"velocity_kms":7.578789868418741,"id":"5f889669c86e27000615b2aa"}
